start=new Date('2022-08-31T00:00:00.000Z').valueOf();
sats=[{"REF_FRAME":"TEME","TLE_LINE1":"1 51873U 22022X   22242.91667824  .00024950  00000-0  15813-2 0  9997","APOAPSIS":"540.795","EPOCH":"2022-08-30T22:00:00.999936","SEMIMAJOR_AXIS":"6917.958","EPHEMERIS_TYPE":"0","GP_ID":"211361986","MEAN_MOTION_DDOT":"0.0000000000000","CENTER_NAME":"EARTH","RA_OF_ASC_NODE":"25.6558","MEAN_ELEMENT_THEORY":"SGP4","ELEMENT_SET_NO":"999","FILE":"3552179","DECAY_DATE":null,"INCLINATION":"53.2185","BSTAR":"0.00158130000000","NORAD_CAT_ID":"51873","ARG_OF_PERICENTER":"58.0520","PERIOD":"95.439","OBJECT_ID":"2022-022X","OBJECT_NAME":"STARLINK-3582","CLASSIFICATION_TYPE":"U","TLE_LINE2":"2 51873  53.2185  25.6558 0001405  58.0520  87.2739 15.08814727  1304","SITE":"AFETR","COUNTRY_CODE":"US","OBJECT_TYPE":"PAYLOAD","MEAN_ANOMALY":"87.2739","RCS_SIZE":"LARGE","LAUNCH_DATE":"2022-03-03","PERIAPSIS":"538.851","MEAN_MOTION_DOT":"0.00024950","TIME_SYSTEM":"UTC","REV_AT_EPOCH":"130","MEAN_MOTION":"15.08814727","ECCENTRICITY":"0.00014050"},{"OBJECT_TYPE":"PAYLOAD","COUNTRY_CODE":"US","RCS_SIZE":"LARGE","LAUNCH_DATE":"2022-03-03","MEAN_MOTION_DOT":"0.00024234","PERIAPSIS":"538.716","MEAN_ANOMALY":"42.7583","CLASSIFICATION_TYPE":"U","ARG_OF_PERICENTER":"62.5625","PERIOD":"95.439","OBJECT_ID":"2022-022Y","OBJECT_NAME":"STARLINK-3574","SITE":"AFETR","TLE_LINE2":"2 51874  53.2186  25.6633 0001574  62.5625  42.7583 15.08820656  1304","MEAN_MOTION":"15.08820656","ECCENTRICITY":"0.00015740","TIME_SYSTEM":"UTC","REV_AT_EPOCH":"130","APOAPSIS":"540.893","SEMIMAJOR_AXIS":"6917.940","EPOCH":"2022-08-30T22:00:00.999936","REF_FRAME":"TEME","TLE_LINE1":"1 51874U 22022Y   22242.91667824  .00024234  00000-0  15363-2 0  9993","ELEMENT_SET_NO":"999","DECAY_DATE":null,"FILE":"3552179","NORAD_CAT_ID":"51874","BSTAR":"0.00153630000000","INCLINATION":"53.2186","CENTER_NAME":"EARTH","EPHEMERIS_TYPE":"0","GP_ID":"211362737","MEAN_MOTION_DDOT":"0.0000000000000","RA_OF_ASC_NODE":"25.6633","MEAN_ELEMENT_THEORY":"SGP4"},{"MEAN_ELEMENT_THEORY":"SGP4","RA_OF_ASC_NODE":"25.6634","EPHEMERIS_TYPE":"0","GP_ID":"211361485","MEAN_MOTION_DDOT":"0.0000000000000","CENTER_NAME":"EARTH","INCLINATION":"53.2201","BSTAR":"0.00158160000000","NORAD_CAT_ID":"51875","ELEMENT_SET_NO":"999","DECAY_DATE":null,"FILE":"3552179","TLE_LINE1":"1 51875U 22022Z   22242.91667824  .00024962  00000-0  15816-2 0  9995","REF_FRAME":"TEME","EPOCH":"2022-08-30T22:00:00.999936","SEMIMAJOR_AXIS":"6917.928","APOAPSIS":"540.920","REV_AT_EPOCH":"130","TIME_SYSTEM":"UTC","ECCENTRICITY":"0.00016280","MEAN_MOTION":"15.08824265","TLE_LINE2":"2 51875  53.2201  25.6634 0001628  55.6242 124.4841 15.08824265  1307","SITE":"AFETR","PERIOD":"95.439","ARG_OF_PERICENTER":"55.6242","OBJECT_NAME":"STARLINK-3585","OBJECT_ID":"2022-022Z","CLASSIFICATION_TYPE":"U","MEAN_ANOMALY":"124.4841","RCS_SIZE":"LARGE","PERIAPSIS":"538.667","LAUNCH_DATE":"2022-03-03","MEAN_MOTION_DOT":"0.00024962","COUNTRY_CODE":"US","OBJECT_TYPE":"PAYLOAD"},{"TLE_LINE1":"1 51876U 22022AA  22242.91667824  .00025510  00000-0  16156-2 0  9994","REF_FRAME":"TEME","EPOCH":"2022-08-30T22:00:00.999936","SEMIMAJOR_AXIS":"6917.914","APOAPSIS":"540.801","RA_OF_ASC_NODE":"25.6576","MEAN_ELEMENT_THEORY":"SGP4","GP_ID":"211361235","MEAN_MOTION_DDOT":"0.0000000000000","EPHEMERIS_TYPE":"0","CENTER_NAME":"EARTH","INCLINATION":"53.2180","NORAD_CAT_ID":"51876","BSTAR":"0.00161560000000","DECAY_DATE":null,"FILE":"3552179","ELEMENT_SET_NO":"999","TLE_LINE2":"2 51876  53.2180  25.6576 0001477  55.0814  70.2230 15.08828989  1307","SITE":"AFETR","OBJECT_NAME":"STARLINK-3583","OBJECT_ID":"2022-022AA","PERIOD":"95.438","ARG_OF_PERICENTER":"55.0814","CLASSIFICATION_TYPE":"U","MEAN_ANOMALY":"70.2230","LAUNCH_DATE":"2022-03-03","PERIAPSIS":"538.757","MEAN_MOTION_DOT":"0.00025510","RCS_SIZE":"LARGE","COUNTRY_CODE":"US","OBJECT_TYPE":"PAYLOAD","REV_AT_EPOCH":"130","TIME_SYSTEM":"UTC","ECCENTRICITY":"0.00014770","MEAN_MOTION":"15.08828989"},{"REF_FRAME":"TEME","TLE_LINE1":"1 51877U 22022AB  22242.91667824 -.00042127  00000-0 -26431-2 0  9997","APOAPSIS":"540.694","EPOCH":"2022-08-30T22:00:00.999936","SEMIMAJOR_AXIS":"6917.828","EPHEMERIS_TYPE":"0","GP_ID":"211362487","MEAN_MOTION_DDOT":"0.0000000000000","CENTER_NAME":"EARTH","MEAN_ELEMENT_THEORY":"SGP4","RA_OF_ASC_NODE":"15.6657","ELEMENT_SET_NO":"999","FILE":"3552179","DECAY_DATE":null,"INCLINATION":"53.2179","NORAD_CAT_ID":"51877","BSTAR":"-0.00264310000000","PERIOD":"95.436","ARG_OF_PERICENTER":"65.3215","OBJECT_NAME":"STARLINK-3556","OBJECT_ID":"2022-022AB","CLASSIFICATION_TYPE":"U","TLE_LINE2":"2 51877  53.2179  15.6657 0001447  65.3215 154.9648 15.08857283  1303","SITE":"AFETR","COUNTRY_CODE":"US","OBJECT_TYPE":"PAYLOAD","MEAN_ANOMALY":"154.9648","RCS_SIZE":"LARGE","LAUNCH_DATE":"2022-03-03","PERIAPSIS":"538.692","MEAN_MOTION_DOT":"-0.00042127","TIME_SYSTEM":"UTC","REV_AT_EPOCH":"130","MEAN_MOTION":"15.08857283","ECCENTRICITY":"0.00014470"},{"OBJECT_TYPE":"PAYLOAD","COUNTRY_CODE":"US","LAUNCH_DATE":"2022-03-03","MEAN_MOTION_DOT":"0.00025035","PERIAPSIS":"538.671","RCS_SIZE":"LARGE","MEAN_ANOMALY":"108.3558","CLASSIFICATION_TYPE":"U","OBJECT_ID":"2022-022AC","OBJECT_NAME":"STARLINK-3575","PERIOD":"95.438","ARG_OF_PERICENTER":"56.9274","SITE":"AFETR","TLE_LINE2":"2 51878  53.2197  25.6627 0001599  56.9274 108.3558 15.08829610  1307","MEAN_MOTION":"15.08829610","ECCENTRICITY":"0.00015990","TIME_SYSTEM":"UTC","REV_AT_EPOCH":"130","APOAPSIS":"540.883","SEMIMAJOR_AXIS":"6917.912","EPOCH":"2022-08-30T22:00:00.999936","REF_FRAME":"TEME","TLE_LINE1":"1 51878U 22022AC  22242.91667824  .00025035  00000-0  15859-2 0  9997","FILE":"3552179","DECAY_DATE":null,"ELEMENT_SET_NO":"999","NORAD_CAT_ID":"51878","BSTAR":"0.00158590000000","INCLINATION":"53.2197","CENTER_NAME":"EARTH","GP_ID":"211362237","MEAN_MOTION_DDOT":"0.0000000000000","EPHEMERIS_TYPE":"0","RA_OF_ASC_NODE":"25.6627","MEAN_ELEMENT_THEORY":"SGP4"},{"APOAPSIS":"540.767","EPOCH":"2022-08-30T22:00:00.999936","SEMIMAJOR_AXIS":"6917.854","REF_FRAME":"TEME","TLE_LINE1":"1 51879U 22022AD  22242.91667824 -.00039183  00000-0 -24567-2 0  9995","DECAY_DATE":null,"FILE":"3552179","ELEMENT_SET_NO":"999","INCLINATION":"53.2180","BSTAR":"-0.00245670000000","NORAD_CAT_ID":"51879","GP_ID":"211360985","MEAN_MOTION_DDOT":"0.0000000000000","EPHEMERIS_TYPE":"0","CENTER_NAME":"EARTH","MEAN_ELEMENT_THEORY":"SGP4","RA_OF_ASC_NODE":"15.6668","COUNTRY_CODE":"US","OBJECT_TYPE":"PAYLOAD","MEAN_ANOMALY":"200.9652","LAUNCH_DATE":"2022-03-03","MEAN_MOTION_DOT":"-0.00039183","PERIAPSIS":"538.672","RCS_SIZE":"LARGE","OBJECT_NAME":"STARLINK-3572","OBJECT_ID":"2022-022AD","PERIOD":"95.437","ARG_OF_PERICENTER":"59.3211","CLASSIFICATION_TYPE":"U","TLE_LINE2":"2 51879  53.2180  15.6668 0001514  59.3211 200.9652 15.08848490  1300","SITE":"AFETR","MEAN_MOTION":"15.08848490","ECCENTRICITY":"0.00015140","TIME_SYSTEM":"UTC","REV_AT_EPOCH":"130"},{"APOAPSIS":"540.731","SEMIMAJOR_AXIS":"6917.886","EPOCH":"2022-08-30T22:00:00.999936","REF_FRAME":"TEME","TLE_LINE1":"1 51880U 22022AE  22242.91667824 -.00011422  00000-0 -70072-3 0  9996","DECAY_DATE":null,"FILE":"3552179","ELEMENT_SET_NO":"999","BSTAR":"-0.00070072000000","NORAD_CAT_ID":"51880","INCLINATION":"53.2168","CENTER_NAME":"EARTH","MEAN_MOTION_DDOT":"0.0000000000000","GP_ID":"211361736","EPHEMERIS_TYPE":"0","RA_OF_ASC_NODE":"25.6861","MEAN_ELEMENT_THEORY":"SGP4","OBJECT_TYPE":"PAYLOAD","COUNTRY_CODE":"US","LAUNCH_DATE":"2022-03-03","PERIAPSIS":"538.770","MEAN_MOTION_DOT":"-0.00011422","RCS_SIZE":"LARGE","MEAN_ANOMALY":"290.6810","CLASSIFICATION_TYPE":"U","OBJECT_NAME":"STARLINK-3566","OBJECT_ID":"2022-022AE","PERIOD":"95.438","ARG_OF_PERICENTER":"69.4450","SITE":"AFETR","TLE_LINE2":"2 51880  53.2168  25.6861 0001417  69.4450 290.6810 15.08838284  1305","MEAN_MOTION":"15.08838284","ECCENTRICITY":"0.00014170","TIME_SYSTEM":"UTC","REV_AT_EPOCH":"130"},{"SEMIMAJOR_AXIS":"6917.821","EPOCH":"2022-08-30T22:00:00.999936","APOAPSIS":"540.672","TLE_LINE1":"1 51881U 22022AF  22242.91667824 -.00045705  00000-0 -28704-2 0  9992","REF_FRAME":"TEME","NORAD_CAT_ID":"51881","BSTAR":"-0.00287040000000","INCLINATION":"53.2181","FILE":"3552179","DECAY_DATE":null,"ELEMENT_SET_NO":"999","RA_OF_ASC_NODE":"15.6724","MEAN_ELEMENT_THEORY":"SGP4","CENTER_NAME":"EARTH","MEAN_MOTION_DDOT":"0.0000000000000","GP_ID":"211361987","EPHEMERIS_TYPE":"0","MEAN_MOTION_DOT":"-0.00045705","LAUNCH_DATE":"2022-03-03","PERIAPSIS":"538.699","RCS_SIZE":"LARGE","MEAN_ANOMALY":"240.6957","OBJECT_TYPE":"PAYLOAD","COUNTRY_CODE":"US","SITE":"AFETR","TLE_LINE2":"2 51881  53.2181  15.6724 0001426  59.6085 240.6957 15.08859526  1302","CLASSIFICATION_TYPE":"U","OBJECT_NAME":"STARLINK-3504","OBJECT_ID":"2022-022AF","ARG_OF_PERICENTER":"59.6085","PERIOD":"95.436","ECCENTRICITY":"0.00014260","MEAN_MOTION":"15.08859526","REV_AT_EPOCH":"130","TIME_SYSTEM":"UTC"},{"APOAPSIS":"540.745","SEMIMAJOR_AXIS":"6917.922","EPOCH":"2022-08-30T22:00:00.999936","REF_FRAME":"TEME","TLE_LINE1":"1 51882U 22022AG  22242.91667824  .00002557  00000-0  17875-3 0  9997","FILE":"3552179","DECAY_DATE":null,"ELEMENT_SET_NO":"999","BSTAR":"0.00017875000000","NORAD_CAT_ID":"51882","INCLINATION":"53.2168","CENTER_NAME":"EARTH","GP_ID":"211362738","MEAN_MOTION_DDOT":"0.0000000000000","EPHEMERIS_TYPE":"0","MEAN_ELEMENT_THEORY":"SGP4","RA_OF_ASC_NODE":"15.6626","OBJECT_TYPE":"PAYLOAD","COUNTRY_CODE":"US","PERIAPSIS":"538.828","LAUNCH_DATE":"2022-03-03","MEAN_MOTION_DOT":"0.00002557","RCS_SIZE":"LARGE","MEAN_ANOMALY":"193.9757","CLASSIFICATION_TYPE":"U","OBJECT_NAME":"STARLINK-3570","OBJECT_ID":"2022-022AG","ARG_OF_PERICENTER":"46.3552","PERIOD":"95.438","SITE":"AFETR","TLE_LINE2":"2 51882  53.2168  15.6626 0001386  46.3552 193.9757 15.08826522  1304","MEAN_MOTION":"15.08826522","ECCENTRICITY":"0.00013860","TIME_SYSTEM":"UTC","REV_AT_EPOCH":"130"}];
